# From NK 1615
P/1996 R2 (Lagerkvist),e,2.5992,40.0499,333.4785,3.772930,0.1344888,0.31435324,292.5382,01/30.0/2025,2000,g 11.5,4.0
# From MPC 75703
P/1998 VS24 (LINEAR),e,5.0288,159.0463,244.8546,4.521087,0.1025274,0.24365587,262.5361,01/30.0/2025,2000,g 13.0,2.0
# From NK 731
P/1999 RO28 (LONEOS),e,7.5668,137.8452,231.3518,3.425356,0.1554696,0.67222803,317.5115,01/30.0/2025,2000,g 20.0,2.0
# From MPC 75704
P/1999 XN120 (Catalina),e,5.0295,285.2478,161.6441,4.181108,0.1152834,0.21127404,322.4219,01/30.0/2025,2000,g 13.5,2.0
# From NK 744
P/2000 R2 (LINEAR),e,11.6790,160.2758,176.5868,3.468747,0.1525616,0.53066734,313.2703,01/30.0/2025,2000,g 18.0,4.0
# From MPC 43019
P/2001 H5 (NEAT),e,8.3714,328.6670,224.5949,6.095014,0.0655001,0.59891629,222.9470,01/30.0/2025,2000,g 12.0,4.0
# From MPEC 2023-UR6
P/2002 EJ57 (LINEAR),e,4.9876,330.2347,167.2676,6.455746,0.0600875,0.59374858,145.1951,01/30.0/2025,2000,g 12.5,4.0
# From MPC 75007
C/2002 VQ94 (LINEAR),e,70.6779,35.1235,99.8052,186.2588,0.0003877,0.96371623,2.6867,01/30.0/2025,2000,g  9.5,2.0
# From MPC 50354
P/2003 F2 (NEAT),e,11.6720,358.8976,192.7122,6.522986,0.0591609,0.54080793,112.5666,01/30.0/2025,2000,g 16.5,2.0
# From MPC 50139
P/2003 QX29 (NEAT),e,11.3997,264.5334,37.6581,8.000729,0.0435522,0.47140773,351.7652,01/30.0/2025,2000,g  8.5,4.0
# From MPC105235
P/2003 T12 (SOHO),e,11.0246,174.5773,219.7883,2.584074,0.2372722,0.77023080,49.8864,01/30.0/2025,2000,g 17.0,4.0
# From MPEC 2022-YN2
P/2004 FY140 (LINEAR),e,2.1625,327.2630,254.1736,4.969683,0.0889633,0.19258920,293.0358,01/30.0/2025,2000,g 12.5,2.0
# From MPC 53304
P/2004 R3 (LINEAR-NEAT),e,12.7982,305.1199,37.3347,4.749741,0.0952137,0.25435175,117.2654,01/30.0/2025,2000,g 14.5,4.0
# From MPC 75705
P/2004 V5 (LINEAR-Hill),e,19.3416,47.7420,87.2395,8.034492,0.0432779,0.44817758,320.2346,01/30.0/2025,2000,g  8.0,4.0
# From MPC 75705
P/2004 V5-B (LINEAR-Hill),e,19.3417,47.7424,87.2434,8.034799,0.0432754,0.44819729,320.1949,01/30.0/2025,2000,g  8.0,4.0
# From MPC 54164
P/2005 E1 (Tubbiolo),e,4.2608,335.5054,193.8958,7.067495,0.0524573,0.37707667,25.7084,01/30.0/2025,2000,g 10.0,4.0
# From MPC 79019
P/2005 J1 (McNaught),e,31.7405,268.7996,338.9165,3.574297,0.1458539,0.56927137,336.2681,01/30.0/2025,2000,g 16.5,4.0
# From MPC 74246
P/2005 L1 (McNaught),e,8.1060,130.2807,157.4246,3.960528,0.1250474,0.24119618,144.0853,01/30.0/2025,2000,g  9.5,4.0
# From MPC 75706
P/2005 S2 (Skiff),e,3.1380,161.3396,229.9474,7.986463,0.0436689,0.19865219,296.4137,01/30.0/2025,2000,g  7.5,4.0
# From MPC 73461
P/2005 T3 (Read),e,6.2308,27.6283,7.0188,7.578285,0.0472441,0.17475961,333.2716,01/30.0/2025,2000,g  9.0,4.0
# From MPC 73461
P/2005 T4 (SWAN),e,160.2637,25.8712,41.8319,9.352192,0.0344615,0.93054896,242.6389,01/30.0/2025,2000,g 15.0,4.0
# From MPC 75706
P/2005 T5 (Broughton),e,21.3832,57.0650,304.7724,7.260825,0.0503762,0.55190317,353.1531,01/30.0/2025,2000,g 11.0,4.0
# From MPC 75707
P/2006 HR30 (Siding Spring),e,31.9488,309.7692,117.4976,7.798468,0.0452575,0.84366001,298.9884,01/30.0/2025,2000,g 11.0,4.0
# From MPC 75707
P/2007 C2 (Catalina),e,8.6126,275.2381,180.1404,7.018265,0.0530102,0.47387686,337.9786,01/30.0/2025,2000,g 10.0,4.0
# From MPC 84315
C/2007 D1 (LINEAR),e,41.5107,171.0746,339.7185,1197,0.0000238,0.99269902,0.0000,06/12.8475/2007,2000,g  3.5,4.0
# From MPEC 2024-GJ3
P/2007 K2 (Gibbs),e,7.6018,188.4892,347.1265,7.358598,0.0493755,0.68611228,324.1152,01/30.0/2025,2000,g 14.0,4.0
# From MPC 60925
P/2007 Q2 (Gilmore),e,10.1951,172.2197,162.8633,5.661336,0.0731687,0.66892345,111.6922,01/30.0/2025,2000,g 16.0,4.0
# From MPC 73462
P/2007 S1 (Zhao),e,5.9635,141.3294,245.2648,3.818155,0.1321064,0.33810339,111.8148,01/30.0/2025,2000,g 13.0,4.0
# From MPEC 2024-GJ3
C/2007 S2 (Lemmon),e,16.9125,296.1270,210.1462,12.49604,0.0223124,0.55665755,133.7526,01/30.0/2025,2000,g  6.5,4.0
# From MPC 61994
P/2007 T2 (Kowalski),e,9.7493,3.3905,359.6708,3.043655,0.1856141,0.78552322,81.5660,01/30.0/2025,2000,g 18.5,4.0
# From MPEC 2024-GJ3
C/2008 E1 (Catalina),e,34.8653,188.9492,270.3224,10.76395,0.0279092,0.55282638,167.6342,01/30.0/2025,2000,g  7.0,4.0
# From MPC 64114
P/2008 O3 (Boattini),e,32.3196,47.6082,341.2026,8.208651,0.0419079,0.69633436,254.4756,01/30.0/2025,2000,g 13.0,4.0
# From MPC 75710
P/2008 Y3 (McNaught),e,38.7788,262.8451,238.0945,8.039340,0.0432388,0.44792430,254.4689,01/30.0/2025,2000,g  8.5,4.0
# From MPC 75710
P/2009 B1 (Boattini),e,22.2594,297.1085,128.9880,6.727667,0.0564816,0.63602288,330.8341,01/30.0/2025,2000,g 13.0,4.0
# From MPC 66466
C/2009 G1 (STEREO),e,108.0819,120.8501,175.5240,459.0944,0.0001002,0.99752175,0.0000,04/17.8108/2009,2000,g  9.0,4.0
# From MPC 75710
P/2009 O3 (Hill),e,16.2585,183.7164,154.4420,7.770648,0.0455007,0.68636466,260.5089,01/30.0/2025,2000,g 12.5,4.0
# From MPC 68902
P/2009 Q5 (McNaught),e,40.9591,160.2220,209.2041,7.425297,0.0487117,0.60947869,273.1497,01/30.0/2025,2000,g 10.0,4.0
# From MPC112389
P/2009 T2 (La Sagra),e,27.6056,216.3317,215.9790,7.709138,0.0460464,0.76749940,253.0376,01/30.0/2025,2000,g 14.0,4.0
# From MPC105235
P/2009 WX51 (Catalina),e,9.5969,31.5262,118.2862,3.082457,0.1821204,0.73962008,279.8494,01/30.0/2025,2000,g 19.0,2.0
# From MPC 74247
P/2009 Y2 (Kowalski),e,29.9741,262.0868,172.2209,6.540138,0.0589283,0.63744098,320.4774,01/30.0/2025,2000,g 13.0,4.0
# From MPC 75008
P/2010 C1 (Scotti),e,9.1158,141.5990,2.9475,7.126703,0.0518049,0.26350012,291.0118,01/30.0/2025,2000,g  9.5,4.0
# From MPC 75008
P/2010 D2 (WISE),e,57.1324,319.8751,119.9890,6.718662,0.0565952,0.45176550,309.6126,01/30.0/2025,2000,g 16.0,4.0
# From MPC 75009
P/2010 E2 (Jarnac),e,15.4179,177.8177,8.2199,8.636492,0.0388327,0.72057213,210.9984,01/30.0/2025,2000,g 14.0,4.0
# From MPC 72851
P/2010 H2 (Vales),e,14.2795,64.1872,128.0425,3.833381,0.1313200,0.19758571,354.9298,01/30.0/2025,2000,g  6.0,4.0
# From MPC 70361
P/2010 H3 (SOHO),e,23.1550,77.1927,26.0598,3.035542,0.1863587,0.98556886,0.0000,05/25.2083/2026,2000,g 20.0,2.0
# From MPEC 2024-GJ3
P/2010 H4 (Scotti),e,2.3178,44.7436,179.0899,6.616488,0.0579112,0.26687800,311.2495,01/30.0/2025,2000,g 10.5,4.0
# From MPC 74637
P/2010 H5 (Scotti),e,14.0544,24.5562,174.6931,7.174200,0.0512913,0.15458274,279.3812,01/30.0/2025,2000,g 13.0,2.0
# From MPC 98558
P/2010 J3 (McMillan),e,13.2281,106.5371,157.4373,8.987716,0.0365789,0.72415789,193.3886,01/30.0/2025,2000,g 11.0,4.0
# From MPC 84315
P/2010 JC81 (WISE),e,38.7858,30.8614,12.4947,8.102588,0.0427335,0.77820708,214.4765,01/30.0/2025,2000,g  9.0,4.0
# From MPEC 2024-H77
A/2010 LN135,e,64.5178,184.8204,181.5706,39513,0.0000001,0.99995583,0.0000,05/25.5651/2011,2000,g 14.0,2.0
# From MPC 74248
P/2010 T2 (PANSTARRS),e,7.8679,57.8841,350.5057,5.606701,0.0742409,0.32715449,25.1561,01/30.0/2025,2000,g 11.5,4.0
# From MPC 82316
P/2010 U1 (Boattini),e,8.2276,280.8079,86.5224,6.487791,0.0596429,0.24856009,324.9475,01/30.0/2025,2000,g  9.5,4.0
# From MPEC 2023-J95
C/2010 U3 (Boattini),e,55.5558,42.9904,88.0690,12253,0.0000007,0.99931135,0.0000,02/27.5617/2019,2000,g  1.0,4.0
# From MPC 79021
P/2010 UH55 (Spacewatch),e,8.0366,232.8481,225.2735,6.649469,0.0574809,0.56469371,289.9178,01/30.0/2025,2000,g 11.0,4.0
# From MPC 84021
P/2011 C2 (Gibbs),e,10.8932,11.9575,160.2696,7.410474,0.0488579,0.27076628,234.8147,01/30.0/2025,2000,g  9.0,4.0
# From MPC 79866
P/2011 FR143 (Lemmon),e,15.9638,190.8529,349.6775,6.879668,0.0546201,0.45231203,280.0390,01/30.0/2025,2000,g 14.0,2.0
# From MPC 82317
P/2011 JB15 (Spacewatch-Boattini),e,19.1263,153.5845,110.7513,7.379277,0.0491681,0.31460797,235.1662,01/30.0/2025,2000,g  9.0,4.0
# From MPC 87913
P/2011 N1 (ASH),e,35.7878,77.6299,330.4798,6.235069,0.0633056,0.54553361,292.5924,01/30.0/2025,2000,g 11.5,4.0
# From MPEC 2022-ED3
P/2011 P1 (McNaught),e,5.6530,4.2671,349.1968,7.460127,0.0483710,0.32659823,255.9380,01/30.0/2025,2000,g  9.0,4.0
# From MPEC 2022-HC2
P/2011 S1 (Gibbs),e,2.6889,218.8962,192.8879,8.593563,0.0391241,0.20129181,149.1236,01/30.0/2025,2000,g  8.0,4.0
# From MPEC 2023-UR6
P/2011 V1 (Boattini),e,7.3834,46.4893,269.6280,3.856777,0.1301270,0.54838318,301.6302,01/30.0/2025,2000,g 15.5,4.0
# From MPC 82718
P/2011 W1 (PANSTARRS),e,3.7163,161.8149,282.9849,4.673405,0.0975560,0.28856518,105.9161,01/30.0/2025,2000,g 11.5,4.0
# From MPC 79342
P/2011 Y2 (Boattini),e,6.3910,309.3213,132.0573,6.230055,0.0633820,0.71121265,298.1937,01/30.0/2025,2000,g 15.0,4.0
# From MPEC 2022-K19
P/2012 B1 (PANSTARRS),e,7.6061,36.2114,161.9619,6.540426,0.0589244,0.40994277,250.1316,01/30.0/2025,2000,g  9.0,4.0
# From MPC 78590
P/2012 C3 (PANSTARRS),e,9.0920,135.3677,344.9542,9.748681,0.0323806,0.63011148,359.9758,10/06.0/2011,2000,g 13.0,4.0
# From MPC 84931
P/2012 F2 (PANSTARRS),e,14.6985,226.9577,33.1732,6.346253,0.0616493,0.54029090,266.9149,01/30.0/2025,2000,g 12.0,4.0
# From MPEC 2022-ED3
P/2012 G1 (PANSTARRS),e,12.1680,283.2435,266.0217,4.163036,0.1160349,0.32935356,183.8046,01/30.0/2025,2000,g 15.0,4.0
# From MPC 80898
P/2012 K3 (Gibbs),e,13.1819,125.8077,172.1589,3.631959,0.1423943,0.42167021,284.2507,01/30.0/2025,2000,g 15.0,4.0
# From MPC 88326
P/2012 NJ (La Sagra),e,84.3504,315.6838,338.3942,8.467647,0.0400000,0.84645031,184.5373,01/30.0/2025,2000,g 14.5,4.0
# From MPC 81470
P/2012 O1 (McNaught),e,7.4280,91.9401,238.2889,3.542944,0.1477943,0.59357911,319.3391,01/30.0/2025,2000,g 17.5,4.0
# From MPC 80899
P/2012 O2 (McNaught),e,24.4559,120.6635,183.4250,3.629366,0.1425470,0.53121520,299.1972,01/30.0/2025,2000,g 17.0,4.0
# From MPC 82320
P/2012 T2 (PANSTARRS),e,12.5704,73.8806,311.1417,5.718510,0.0720742,0.16223708,308.0587,01/30.0/2025,2000,g 10.0,4.0
# From MPC 80900
P/2012 T3 (PANSTARRS),e,9.5540,114.3290,195.4863,6.156819,0.0645163,0.61562968,300.5184,01/30.0/2025,2000,g 15.0,4.0
# From MPC 82720
P/2012 U2 (PANSTARRS),e,10.7593,185.2893,228.4178,7.125902,0.0518137,0.50060393,230.4581,01/30.0/2025,2000,g 12.5,4.0
# From MPC 82721
P/2013 AL76 (Catalina),e,144.9079,146.0793,27.0973,6.501150,0.0594592,0.68555919,264.2771,01/30.0/2025,2000,g 16.0,4.0
# From MPC 91612
